{"type":"FeatureCollection","features":[{"type":"Feature","properties":{"creator":"BRouter-1.7.10","track-length":"501","total-time":"78","cost":"5318"},"geometry":{"type":"LineString","coordinates":[[-78.531699,35.849062,63.75],[-78.532638,35.849302,63],[-78.532795,35.848837,64.75],[-78.532496,35.848765,65.25],[-78.532418,35.848664,65.5],[-78.532264,35.848601,65],[-78.532052,35.848294,64.5],[-78.531879,35.848335,63.25],[-78.531692,35.848365,62.25],[-78.531531,35.848379,61.75],[-78.531354,35.848383,61.25],[-78.531013,35.848366,60.25],[-78.530559,35.848292,59.5],[-78.529411,35.848074,60.5],[-78.529204,35.848034,66.25]]}}]}
