{"type":"FeatureCollection","features":[{"type":"Feature","properties":{"creator":"BRouter-1.7.10","track-length":"17463","total-time":"3313","cost":"60395"},"geometry":{"type":"LineString","coordinates":[[-78.531699,35.849062,63.75],[-78.532638,35.849302,63],[-78.533477,35.849514,61.75],[-78.533609,35.849499,62],[-78.533792,35.849079,63.75],[-78.535056,35.849391,63.75],[-78.535908,35.849658,63.75],[-78.535968,35.849683,63.75],[-78.536069,35.849734,63.75],[-78.536122,35.84966,64.25],[-78.536215,35.849531,65],[-78.537059,35.848264,70.25],[-78.537447,35.847619,70],[-78.537776,35.847017,68],[-78.537878,35.846983,67.5],[-78.53796,35.846958,67.25],[-78.537852,35.846765,66.5],[-78.537647,35.846359,68.5],[-78.538003,35.846238,68.5],[-78.538385,35.846109,69.25],[-78.538657,35.846009,70.25],[-78.538826,35.845936,70.75],[-78.539002,35.84585,71],[-78.53917,35.84575,71.25],[-78.539364,35.845618,72],[-78.539557,35.845476,72.5],[-78.539791,35.845254,73],[-78.539891,35.845137,73],[-78.54,35.844988,72.75],[-78.54009,35.844834,73],[-78.540257,35.844904,73.5],[-78.540346,35.844942,73.75],[-78.540483,35.845016,74],[-78.540524,35.845052,74.25],[-78.540567,35.845025,74.25],[-78.54064,35.844979,74.5],[-78.54076,35.844874,74.75],[-78.540853,35.844754,75],[-78.540922,35.844631,75],[-78.541048,35.844239,75],[-78.541243,35.84377,75.5],[-78.541432,35.843297,76.5],[-78.541216,35.843285,76.25],[-78.54108,35.843271,76],[-78.54085,35.843227,75.75],[-78.540736,35.843201,75.5],[-78.540146,35.843017,74],[-78.539976,35.84297,73.75],[-78.539807,35.842943,73.5],[-78.53961,35.842927,73.25],[-78.539612,35.84284,73.25],[-78.539634,35.841922,73.75],[-78.539635,35.841861,73.75],[-78.53957,35.841859,73.5],[-78.539585,35.841379,73.5],[-78.539532,35.841298,73.5],[-78.539502,35.841216,73.5],[-78.539495,35.84118,73.75],[-78.539583,35.841189,73.75],[-78.539859,35.84116,73.75],[-78.540095,35.841106,73.5],[-78.540249,35.841055,73.25],[-78.540312,35.841034,73.25],[-78.540587,35.840895,72.5],[-78.54071,35.84084,72],[-78.540791,35.840773,71.75],[-78.541053,35.840743,70.5],[-78.541234,35.840736,69.5],[-78.541509,35.840758,68.25],[-78.541598,35.840769,67.75],[-78.541702,35.840792,67.5],[-78.541847,35.840836,68],[-78.541968,35.840871,68.5],[-78.542132,35.840518,66.25],[-78.542596,35.839598,62.5],[-78.542898,35.83895,64.75],[-78.542999,35.83898,64.75],[-78.54436,35.839461,63.25],[-78.544449,35.839303,63.5],[-78.54467,35.838868,64.25],[-78.544752,35.838727,64.5],[-78.544991,35.838292,65.25],[-78.54509,35.838091,66.75],[-78.54512,35.837981,67.5],[-78.545115,35.837866,68.25],[-78.545074,35.837751,68.75],[-78.544993,35.837655,69],[-78.544894,35.837576,69.5],[-78.544762,35.837507,69.75],[-78.543854,35.837223,71],[-78.54372,35.837185,71.25],[-78.543967,35.836672,72.5],[-78.544125,35.836331,75.25],[-78.543964,35.836287,75.25],[-78.543152,35.836008,75],[-78.542913,35.83591,75.5],[-78.542387,35.835659,76.75],[-78.542044,35.835491,77.5],[-78.541903,35.835393,77.5],[-78.541829,35.835313,77.75],[-78.541768,35.835201,77.75],[-78.541706,35.835066,78],[-78.541679,35.834978,77.75],[-78.541659,35.834221,74],[-78.541635,35.833033,71.25],[-78.541642,35.832674,69.75],[-78.541676,35.832546,69],[-78.541727,35.832417,68.75],[-78.541795,35.832295,68.75],[-78.542409,35.831771,69.75],[-78.542538,35.831681,70],[-78.542743,35.831536,69.75],[-78.542804,35.831514,69.75],[-78.5429,35.831478,69.75],[-78.543238,35.83144,70.25],[-78.543448,35.831387,70.75],[-78.5435,35.831288,70.5],[-78.543532,35.831174,70],[-78.543556,35.830981,69],[-78.543576,35.830821,68.25],[-78.543614,35.830381,67.5],[-78.543687,35.82937,68.25],[-78.543733,35.829188,68.75],[-78.54379,35.829079,68.25],[-78.543891,35.828961,67.5],[-78.544015,35.828842,66.5],[-78.544204,35.82872,65.5],[-78.544407,35.828646,65],[-78.544627,35.828617,65],[-78.5448,35.828637,65.5],[-78.54496,35.82868,66.25],[-78.545179,35.828756,67],[-78.545469,35.82893,68.25],[-78.545678,35.829035,69],[-78.545725,35.829059,69.25],[-78.545937,35.829144,69.5],[-78.546169,35.8292,69.5],[-78.546367,35.829215,69.5],[-78.546718,35.829235,69.25],[-78.547828,35.829276,72.25],[-78.547761,35.828978,71],[-78.547757,35.828871,70.75],[-78.547759,35.828677,69.75],[-78.54778,35.8284,68.75],[-78.547798,35.828294,68.5],[-78.547834,35.828095,67.75],[-78.547828,35.827888,67],[-78.547806,35.827688,66.25],[-78.547782,35.82758,65.75],[-78.547728,35.827451,66],[-78.547626,35.827271,67.25],[-78.547414,35.827019,68.75],[-78.546987,35.826634,69],[-78.546475,35.826185,68.75],[-78.546214,35.825928,68.5],[-78.546046,35.825761,68.5],[-78.545805,35.825479,69.5],[-78.545656,35.825234,71.5],[-78.545561,35.825077,72.25],[-78.545548,35.825054,72.25],[-78.545333,35.824702,72.75],[-78.545266,35.824595,72.5],[-78.545208,35.824431,72.25],[-78.545204,35.824392,72.25],[-78.54519,35.824271,72.25],[-78.545193,35.824201,72.25],[-78.5452,35.824115,72.25],[-78.54527,35.823926,72.25],[-78.545468,35.823556,71.75],[-78.545748,35.822992,73.25],[-78.545875,35.822735,75.5],[-78.545952,35.822598,77],[-78.546002,35.822532,78],[-78.546115,35.822386,79.75],[-78.546276,35.822176,82],[-78.546542,35.821931,85],[-78.546914,35.821642,85.5],[-78.547121,35.82149,84.25],[-78.54699,35.82136,84.5],[-78.546346,35.820843,83.25],[-78.546178,35.820695,82.5],[-78.54605,35.820542,82.25],[-78.545876,35.820245,82.5],[-78.545684,35.819853,82],[-78.5452,35.818839,80.25],[-78.544848,35.818115,80.5],[-78.544703,35.817855,80.25],[-78.544555,35.817693,80.5],[-78.544216,35.817433,81],[-78.543993,35.817289,81.25],[-78.543561,35.816999,81.25],[-78.543421,35.816851,81.5],[-78.543369,35.816742,81.75],[-78.543321,35.816541,81.75],[-78.543309,35.816434,81.5],[-78.543283,35.81616,81.25],[-78.543249,35.815899,81.25],[-78.542898,35.815926,82],[-78.542886,35.815837,82],[-78.542708,35.815856,82.25],[-78.542568,35.815905,82.75],[-78.542436,35.815987,82.5],[-78.542246,35.816117,82],[-78.542163,35.816165,81.75],[-78.542051,35.8162,81.5],[-78.541941,35.816205,81.5],[-78.541418,35.81615,79.5],[-78.541273,35.816142,78.5],[-78.541146,35.816155,77.75],[-78.541034,35.81618,77.25],[-78.540915,35.816238,76.75],[-78.540698,35.816376,75.5],[-78.540201,35.816717,70.5],[-78.540091,35.816752,69],[-78.539977,35.816765,67.75],[-78.539902,35.816728,67.25],[-78.539852,35.816672,67.25],[-78.539806,35.81657,66.75],[-78.539753,35.816494,66.25],[-78.539692,35.816485,65.5],[-78.539624,35.816513,64.75],[-78.539587,35.816598,64.5],[-78.539562,35.816688,64],[-78.539501,35.816705,63.25],[-78.539523,35.816423,63.5],[-78.539558,35.81628,63.75],[-78.539546,35.816189,63.75],[-78.539474,35.816042,62.75],[-78.539466,35.815956,62.5],[-78.539485,35.815847,62.75],[-78.539491,35.815757,62.75],[-78.539472,35.815685,62.5],[-78.539407,35.81558,61.75],[-78.539384,35.815507,61.75],[-78.53946,35.815392,62.25],[-78.539461,35.815346,62.25],[-78.539409,35.815215,62],[-78.53935,35.815178,61.5],[-78.539278,35.815146,61.25],[-78.539011,35.815149,59.75],[-78.538924,35.815107,59.5],[-78.538828,35.815038,59.25],[-78.538696,35.814897,59],[-78.538603,35.814762,59.25],[-78.538552,35.81464,59.75],[-78.53848,35.814574,59.75],[-78.538291,35.814537,59],[-78.538096,35.81446,58.75],[-78.53793,35.81436,58.25],[-78.53783,35.814273,58.25],[-78.537805,35.814259,58],[-78.537668,35.814181,57.75],[-78.537576,35.814148,57.25],[-78.537376,35.814098,57],[-78.537155,35.814004,57.25],[-78.536845,35.813885,57.25],[-78.536636,35.813783,57.25],[-78.536356,35.813642,57],[-78.535608,35.813171,56.5],[-78.535489,35.813074,56.75],[-78.53535,35.812922,57],[-78.535278,35.812831,57.25],[-78.535246,35.812748,57.5],[-78.535224,35.812634,57.75],[-78.535221,35.812529,58],[-78.535217,35.81234,58],[-78.53519,35.812211,57.75],[-78.53515,35.812097,57.75],[-78.535101,35.812017,57.5],[-78.535022,35.811955,57.25],[-78.534776,35.811838,57],[-78.534707,35.811772,57],[-78.534673,35.81166,56.75],[-78.534701,35.811198,55.75],[-78.534738,35.811124,55.5],[-78.534788,35.811051,55.5],[-78.534862,35.810996,55.25],[-78.534951,35.810951,55.25],[-78.53513,35.810883,55.5],[-78.53564,35.810721,56.75],[-78.536093,35.810614,57],[-78.536209,35.810573,57],[-78.536283,35.810521,57],[-78.536734,35.810097,56.5],[-78.536975,35.809859,57],[-78.5372,35.809695,57.75],[-78.537267,35.809598,58],[-78.537573,35.808989,58.5],[-78.537622,35.808872,58.75],[-78.537643,35.808737,58.75],[-78.537631,35.808641,58.75],[-78.537555,35.808411,58.25],[-78.537478,35.808147,57.75],[-78.537464,35.808053,57.75],[-78.537464,35.807952,57.75],[-78.537485,35.807864,57.75],[-78.537522,35.807787,58],[-78.537619,35.807636,58.5],[-78.537821,35.807366,59],[-78.53795,35.807223,59],[-78.538104,35.807087,59],[-78.53826,35.806965,59],[-78.538583,35.80674,58.5],[-78.538919,35.806518,58.25],[-78.539142,35.806342,57.75],[-78.539259,35.806237,57.25],[-78.539454,35.805983,56],[-78.539525,35.805869,55.5],[-78.539557,35.805798,55.25],[-78.539573,35.805727,55.25],[-78.53957,35.80561,55],[-78.53949,35.804559,56.25],[-78.539461,35.804216,58],[-78.539409,35.803867,58.75],[-78.539292,35.8033,59.25],[-78.539253,35.803169,59],[-78.539239,35.803048,59],[-78.539254,35.802924,59.25],[-78.539313,35.802786,60.25],[-78.539322,35.802686,60.5],[-78.539249,35.802533,60],[-78.539065,35.802344,58.25],[-78.539011,35.802252,58],[-78.538969,35.802124,57.75],[-78.538969,35.80203,57.75],[-78.53899,35.801926,58],[-78.539059,35.801806,58.25],[-78.53936,35.801515,60.75],[-78.539455,35.801414,61],[-78.539591,35.80121,60.5],[-78.539708,35.800974,58.75],[-78.539808,35.800829,57.5],[-78.539918,35.800725,57.25],[-78.540055,35.800619,57.5],[-78.540273,35.800475,58.25],[-78.540487,35.800323,58.25],[-78.54065,35.800192,57.5],[-78.54079,35.800022,56],[-78.540895,35.799834,56.25],[-78.540907,35.799708,56.25],[-78.540886,35.799636,56],[-78.540787,35.799488,55.75],[-78.540755,35.799359,55.75],[-78.540794,35.799163,55.75],[-78.539468,35.798725,56.5],[-78.539267,35.798509,57.25],[-78.539111,35.798328,58.25],[-78.538947,35.798158,59.25],[-78.538854,35.798104,59.75],[-78.538786,35.7981,60],[-78.538575,35.798145,60.75],[-78.538462,35.798163,61.25],[-78.538398,35.798152,61.5],[-78.538333,35.798058,62],[-78.538221,35.797969,62.5],[-78.538035,35.797952,63.75],[-78.537802,35.797902,65],[-78.537561,35.79781,66],[-78.537368,35.797752,66.75],[-78.537271,35.79776,67.5],[-78.537014,35.797804,69],[-78.536908,35.797769,69.5],[-78.536861,35.797705,69.5],[-78.536442,35.797799,72.25],[-78.535771,35.79789,75.25],[-78.535448,35.797926,74.25],[-78.53546,35.798265,72.75],[-78.53546,35.798287,72.75],[-78.535546,35.799213,70.5],[-78.535545,35.799376,69.25],[-78.535543,35.799648,67.5],[-78.535496,35.799972,65],[-78.535416,35.800193,63.25],[-78.53524,35.800573,61.25],[-78.535136,35.800691,61],[-78.534936,35.80089,60.75],[-78.534467,35.80127,61],[-78.533997,35.801626,62],[-78.533743,35.801835,62.75],[-78.533537,35.801934,62.75],[-78.533209,35.802033,63],[-78.532799,35.802043,63],[-78.532346,35.802042,63.5],[-78.532114,35.802085,64.25],[-78.531921,35.802174,65.5],[-78.531818,35.802251,66.5],[-78.531743,35.802307,67],[-78.531564,35.802563,69],[-78.531143,35.803474,72.5],[-78.531024,35.803731,73],[-78.530871,35.804121,74.5],[-78.530607,35.804644,74.5],[-78.530276,35.805111,74],[-78.529825,35.805777,71.5],[-78.529667,35.80601,72],[-78.529628,35.806067,72.25],[-78.529438,35.80632,73.75],[-78.529216,35.806614,75.5],[-78.528512,35.807599,76.25],[-78.528118,35.808179,76.25],[-78.528004,35.808315,76.75],[-78.527862,35.808455,78],[-78.527672,35.80858,79.5],[-78.527444,35.80867,80.75],[-78.527197,35.808718,80.75],[-78.526961,35.808728,80.75],[-78.526708,35.808687,80.75],[-78.526262,35.808603,80.75],[-78.526162,35.808985,80.5],[-78.525486,35.811464,72.5],[-78.525316,35.812173,71.5],[-78.525211,35.812524,70.75],[-78.525106,35.812765,70.25],[-78.52498,35.812961,69.75],[-78.524918,35.813044,69.5],[-78.524726,35.81333,69.25],[-78.524403,35.813836,70.5],[-78.523788,35.814986,72.75],[-78.523416,35.815777,73.75],[-78.523359,35.8159,73.5],[-78.522967,35.817073,64.75],[-78.522747,35.81773,62],[-78.522657,35.817973,61.25],[-78.522529,35.818189,60.5],[-78.522397,35.818356,61],[-78.52221,35.818542,61.5],[-78.522037,35.818682,62],[-78.521998,35.818705,62.25],[-78.521758,35.818864,62.25],[-78.521427,35.819023,63.25],[-78.521114,35.819117,63.25],[-78.520732,35.819183,63.25],[-78.520425,35.819206,64.5],[-78.520138,35.819192,65.5],[-78.519873,35.81916,65.75],[-78.519609,35.819142,65.5],[-78.519304,35.819148,65],[-78.519093,35.819168,65.25],[-78.518829,35.819218,67],[-78.518585,35.819286,68.5],[-78.518305,35.819388,70.5],[-78.51808,35.8195,72],[-78.517599,35.819796,74.75],[-78.51747,35.819889,75.25],[-78.517441,35.819909,75.5],[-78.517347,35.819976,75.75],[-78.516625,35.820496,75.75],[-78.516255,35.820889,75.75],[-78.515994,35.821255,76],[-78.515766,35.82162,76],[-78.515586,35.821835,76.75],[-78.515331,35.82237,79.5],[-78.515241,35.822341,79.5],[-78.51519,35.82235,79.75],[-78.51516,35.82241,80],[-78.515146,35.822434,80.25],[-78.515194,35.822461,80.25],[-78.515207,35.822478,80.25],[-78.515209,35.822504,80.5],[-78.515201,35.822525,80.5],[-78.514666,35.823666,84.5],[-78.514634,35.823725,84.75],[-78.514531,35.823877,85.75],[-78.514381,35.824196,87.5],[-78.514339,35.824232,87.75],[-78.514354,35.82426,87.75],[-78.514306,35.824351,88.5],[-78.51439,35.824377,88],[-78.514075,35.824921,91.25],[-78.513432,35.825738,93.75],[-78.51343,35.825741,93.75],[-78.51339,35.825782,93.75],[-78.512777,35.826411,93],[-78.512666,35.826529,93.25],[-78.512346,35.82687,93],[-78.511963,35.827246,92],[-78.51189,35.827318,91.75],[-78.511397,35.827799,89.5],[-78.51115,35.827981,87.75],[-78.510917,35.828131,86.25],[-78.511309,35.828348,86],[-78.511727,35.828581,85.25],[-78.511851,35.828649,84.5],[-78.51213,35.828835,83],[-78.51233,35.829036,81.75],[-78.512802,35.829707,79.75],[-78.512973,35.830009,79],[-78.513111,35.830276,79],[-78.513237,35.830603,79],[-78.513324,35.830895,78.5],[-78.513434,35.831302,77],[-78.513537,35.831579,76.25],[-78.513671,35.831799,76.25],[-78.513899,35.832059,76.75],[-78.514326,35.832432,76.75],[-78.514396,35.832479,76.75],[-78.514593,35.832609,76.5],[-78.51536,35.833012,76.25],[-78.515753,35.833228,73.5],[-78.516012,35.833408,72.75],[-78.51613,35.833569,73],[-78.516196,35.833747,73.25],[-78.516258,35.833971,74],[-78.516383,35.835049,77.25],[-78.51643,35.835743,78.75],[-78.516566,35.835737,79.25],[-78.517232,35.835712,78.75],[-78.517334,35.835708,78.75],[-78.517336,35.835785,79],[-78.517345,35.836167,80.75],[-78.517342,35.836612,83],[-78.517276,35.837551,79.75],[-78.51727,35.837617,79.75],[-78.517262,35.837739,80],[-78.517262,35.838082,80.5],[-78.51726,35.838335,80.75],[-78.517229,35.838481,81.25],[-78.517023,35.838935,82.5],[-78.516319,35.838874,84.5],[-78.516137,35.838864,85],[-78.516103,35.839208,85.25],[-78.516086,35.839376,85.5],[-78.516074,35.8395,85.5],[-78.516053,35.839974,85.75],[-78.516012,35.840473,88],[-78.515975,35.840729,89.25],[-78.515942,35.840879,89.75],[-78.515911,35.841015,90.25],[-78.5158,35.841397,91.25],[-78.515706,35.841696,91.75],[-78.516681,35.841893,90.75],[-78.517151,35.841998,90.25],[-78.51736,35.842074,90],[-78.517657,35.842226,90],[-78.517789,35.842323,89.75],[-78.517937,35.842461,89.25],[-78.518036,35.842569,89],[-78.518109,35.842673,88.75],[-78.518191,35.842824,88.25],[-78.518408,35.843226,87.75],[-78.518451,35.843336,87.5],[-78.518466,35.843436,87.25],[-78.518461,35.843539,87],[-78.518449,35.843604,87],[-78.518416,35.843684,86.75],[-78.518296,35.843823,86.75],[-78.518236,35.84388,86.75],[-78.518038,35.844052,86.5],[-78.517952,35.844103,86.5],[-78.517756,35.844271,86.5],[-78.517729,35.844305,86.5],[-78.51761,35.844455,86.25],[-78.517553,35.844569,86.25],[-78.517497,35.844704,86.25],[-78.517302,35.845088,87.5],[-78.517312,35.845111,87.75],[-78.517328,35.845146,87.75],[-78.517267,35.845218,88.5],[-78.517737,35.845347,87.25],[-78.518152,35.845454,86.5],[-78.519037,35.845774,83.5],[-78.519736,35.845984,81.75],[-78.520484,35.846147,81.5],[-78.520904,35.846226,81.75],[-78.521011,35.846246,81.5],[-78.521243,35.846286,81],[-78.522078,35.846438,79],[-78.522935,35.846603,78],[-78.523572,35.846726,75.75],[-78.524059,35.846844,72],[-78.52419,35.846876,71],[-78.524293,35.846908,71],[-78.524461,35.84696,70.75],[-78.52514,35.847192,69],[-78.525416,35.847266,68.25],[-78.525704,35.847341,67.75],[-78.526067,35.847435,67],[-78.52599,35.847708,66.5],[-78.526101,35.847733,66.5],[-78.526207,35.847757,66.5],[-78.526378,35.847796,66.25],[-78.526475,35.847521,66.75],[-78.527068,35.847632,66.5],[-78.527323,35.847679,66.5],[-78.527483,35.84771,66.25],[-78.529204,35.848034,60.5]]}}]}
