{"type":"FeatureCollection","features":[{"type":"Feature","id":68,"geometry":{"type":"LineString","coordinates":[[-78.5310889604517,35.8449375446105],[-78.5310915870023,35.8448630080805],[-78.5310919596717,35.8448453307482],[-78.5310921405132,35.8448229368986],[-78.531092052826,35.8448002698131],[-78.5310915893526,35.8447797888199],[-78.5310908241178,35.8447619007054],[-78.5310896238958,35.8447440001018],[-78.5310881852495,35.8447276975478],[-78.5310864570028,35.844711510152],[-78.5310843549781,35.8446946822726],[-78.5310816026387,35.8446748865029],[-78.5310789252192,35.8446572515189],[-78.5310724072171,35.8446163942135],[-78.5310627166166,35.8445591078053],[-78.5310606091339,35.8445453210049],[-78.5310589568008,35.8445332232525],[-78.5310566294068,35.8445123105599],[-78.531053979496,35.844483639745],[-78.5310520828861,35.8444598390315],[-78.5310507791513,35.8444384120083],[-78.5310498474814,35.8444152495451],[-78.531049401338,35.8443933102569],[-78.5310493501561,35.8443714130477],[-78.5310497498523,35.8443479339285],[-78.5310504357543,35.8443285497697],[-78.5310514895488,35.8443096753783],[-78.5310533259986,35.8442850778209],[-78.5310553417745,35.8442629623261],[-78.5310567362783,35.8442504274269],[-78.5310584036015,35.8442374257844],[-78.5310602453042,35.8442247060288],[-78.5310621182104,35.8442132861172],[-78.5310642885458,35.8442013553915],[-78.5310671310748,35.8441869035153],[-78.5310745946722,35.8441515863992],[-78.5310804283685,35.844126255205],[-78.5310893104003,35.8440895401652],[-78.5310979236663,35.8440527826292],[-78.5311016229714,35.8440377653047],[-78.531105589291,35.8440225182653],[-78.531109484779,35.8440084129439],[-78.5311136928873,35.8439940402268],[-78.5311176916936,35.8439812070849],[-78.5311242570424,35.8439618013687],[-78.5311311943717,35.8439431542033],[-78.5311379716969,35.8439265172989],[-78.5311413648677,35.8439188527819],[-78.5311446051373,35.8439119745417],[-78.531149699872,35.8439020046453],[-78.5311557902847,35.8438909984377],[-78.5311622542153,35.8438799134474],[-78.5311784088711,35.8438528048439],[-78.5311873911481,35.8438369650824],[-78.5311919002565,35.8438285233979],[-78.5311964812906,35.8438195141492],[-78.531200530836,35.8438110986386],[-78.5312043705083,35.8438026039049],[-78.531207728027,35.843794594939],[-78.5312107233402,35.8437868135192],[-78.5312137092583,35.8437783614704],[-78.5312164776904,35.8437698067346],[-78.5312190342657,35.8437611331092],[-78.5312213461028,35.8437524747669],[-78.5312235001228,35.8437435418121],[-78.531225441038,35.8437345142989],[-78.5312278864051,35.8437211560111],[-78.5312298142597,35.8437080814563],[-78.5312313843276,35.8436942817544],[-78.5312326952881,35.8436787757315],[-78.5312346932239,35.843646173135],[-78.5312395778448,35.8435519844432],[-78.5312435214533,35.8434795638638],[-78.5312453355516,35.8434488813019],[-78.5312464735129,35.8434326634595],[-78.531248512106,35.8434071734467],[-78.5312573545392,35.8433030059662],[-78.5312593665933,35.843272546793],[-78.5312608689769,35.8432429284076],[-78.5312616222774,35.8432216471904],[-78.5312622448761,35.8431959885901],[-78.5312625813277,35.8431744317642],[-78.5312626677883,35.8431532236949],[-78.5312623657567,35.8431260869558],[-78.531260598436,35.8430691068035],[-78.5312597393868,35.8430231065946],[-78.5312597076186,35.8429936526608],[-78.5312604256016,35.8429492556787],[-78.531260931174,35.8429294598077],[-78.5312617128666,35.8429072908827],[-78.5312669360383,35.8427808618257],[-78.5312683758336,35.8427479082564],[-78.5312721082367,35.842669519107],[-78.5312799696377,35.8424876798125],[-78.5312813725831,35.8424513433888],[-78.5312818546347,35.8424306388784],[-78.5312821583645,35.8424009789213],[-78.5312829887089,35.842262563227],[-78.5312829222843,35.8422282031867],[-78.5312823460447,35.8422040641258],[-78.5312811341393,35.8421786328107],[-78.5312702525122,35.8420018590361],[-78.5312655783835,35.8419313062008],[-78.5312581703278,35.8418335937425],[-78.5312560459096,35.841804027196],[-78.5312502300948,35.8417136937747],[-78.531247756154,35.8416709087065],[-78.5312435592715,35.8415877408092],[-78.5312419682966,35.8415490349709],[-78.5312393804502,35.8414634757052],[-78.531240231826,35.8413495033537]]},"properties":{"OBJECTID":68,"GWSTATUS":"CLOSED_TEMP"}},{"type":"Feature","id":69,"geometry":{"type":"LineString","coordinates":[[-78.5310749615147,35.8452120316842],[-78.5310889604517,35.8449375446105]]},"properties":{"OBJECTID":69,"GWSTATUS":"CLOSED_TEMP"}},{"type":"Feature","id":70,"geometry":{"type":"LineString","coordinates":[[-78.5306195825664,35.8475893484494],[-78.5306196133043,35.8475892025518],[-78.5306227037567,35.8475763199764],[-78.5306278150374,35.847558786189],[-78.5306395605914,35.8475214855643],[-78.530644505637,35.8475051246717],[-78.5306519489759,35.8474789092051],[-78.5306631775076,35.8474379868327],[-78.5306721554902,35.8474044800777],[-78.5307150901518,35.8472422980898],[-78.5308075052027,35.8469011106071],[-78.5308326339853,35.8468086502778],[-78.530925821198,35.8464681506425],[-78.5309634928763,35.8463296569483],[-78.5310298825492,35.8460793028263],[-78.5310461883008,35.8460184137565],[-78.5310503129489,35.8460024183296],[-78.5310537958168,35.8459878968187],[-78.5310578293695,35.8459692844694],[-78.5310612549344,35.8459512826884],[-78.5310645622531,35.8459311460943],[-78.5310672392649,35.8459118417107],[-78.5310692759815,35.8458939463529],[-78.5310708514473,35.8458761754077],[-78.5310720534606,35.845856752684],[-78.5310728037755,35.8458373345323],[-78.5310730334174,35.8458223678679],[-78.5310729490923,35.8458065635581],[-78.5310725624451,35.8457911582777],[-78.5310718678609,35.8457763566078],[-78.5310707662459,35.8457603482892],[-78.5310693387077,35.8457440367702],[-78.5310678122708,35.8457295068075],[-78.5310644851185,35.8457013552725],[-78.5310629695341,35.8456874355542],[-78.5310608851004,35.845665855015],[-78.5310595771544,35.8456495385473],[-78.5310581055907,35.8456240251415],[-78.5310567914085,35.8455933287703],[-78.5310562111864,35.8455710284419],[-78.5310560463999,35.8455488676153],[-78.5310562998982,35.8455135714571],[-78.5310568024824,35.8454820907011],[-78.5310576454864,35.8454543292562],[-78.5310587993636,35.8454292739095],[-78.53106300921,35.8453611907234],[-78.5310666757905,35.8453081306818],[-78.5310703412374,35.8452607986118],[-78.5310724821875,35.8452367646656],[-78.5310749615147,35.8452120316842]]},"properties":{"OBJECTID":70,"GWSTATUS":"CLOSED_TEMP"}},{"type":"Feature","id":71,"geometry":{"type":"LineString","coordinates":[[-78.530914934601,35.8477279978872],[-78.5308751253525,35.8476824734183],[-78.5308612305606,35.8476658389083],[-78.5308444835229,35.84765104791],[-78.5308252480459,35.8476384217363],[-78.5308039419932,35.8476282346724],[-78.5307810282081,35.8476207080172],[-78.5307385340585,35.8476120530186],[-78.5307157725703,35.8476075272504],[-78.5307022613638,35.847604965034],[-78.5306872131795,35.8476022770228],[-78.5306745605176,35.8476001886038],[-78.5306195825664,35.8475893484494]]},"properties":{"OBJECTID":71,"GWSTATUS":"CLOSED_TEMP"}},{"type":"Feature","id":72,"geometry":{"type":"LineString","coordinates":[[-78.5303975017484,35.8494725476642],[-78.5304172082166,35.8489866132635],[-78.5304180014468,35.8489638423436],[-78.5304181800555,35.8489529179771],[-78.53041812774,35.848943820624],[-78.5304177751632,35.848934002851],[-78.5304171858494,35.8489241544223],[-78.5304162603796,35.8489129040277],[-78.5304149617099,35.8489005300365],[-78.5304134478646,35.8488887969654],[-78.530412056381,35.8488802028063],[-78.5304081136781,35.8488644557592]]},"properties":{"OBJECTID":72,"GWSTATUS":"CLOSED_TEMP"}},{"type":"Feature","id":73,"geometry":{"type":"LineString","coordinates":[[-78.5304559152774,35.8542629196359],[-78.5304622136743,35.8542566652164],[-78.5304707497414,35.8542479137123],[-78.5304800291288,35.8542381366511],[-78.5305015529226,35.8542147587787],[-78.5305175893457,35.8541965802851],[-78.5305389694814,35.8541712459642],[-78.5306929399987,35.8539863122562],[-78.5307092481324,35.8539665141885],[-78.530721091768,35.8539517536022],[-78.5307320113546,35.8539376825822],[-78.530746918913,35.8539180774121],[-78.5308692464579,35.8537559930205],[-78.530884707986,35.8537353543343],[-78.5308956807296,35.8537203172762],[-78.5309074595912,35.8537035428476],[-78.5309313973851,35.8536686010894],[-78.530953584766,35.8536262655307],[-78.5309686226319,35.8535818956138],[-78.5309762411507,35.8535362875261],[-78.530976303626,35.8534902596719],[-78.5309688089497,35.8534446379864],[-78.5309616318591,35.8534203231055],[-78.5309244004187,35.853299090526],[-78.5309171882687,35.8532760517916],[-78.5309093772779,35.8532520391175],[-78.5308875322438,35.8531862480187],[-78.530876003588,35.8531521117059],[-78.5308071925451,35.8529545815489],[-78.5307891254894,35.8529019013089],[-78.5307767289706,35.8528645150473],[-78.5307348992516,35.852737143747],[-78.5307254861701,35.852707632176],[-78.5307170757018,35.8526801055895],[-78.5306986148176,35.852617478522],[-78.5306894382217,35.8525853783314],[-78.5306833656046,35.8525621204324],[-78.5306754705349,35.8525289697132],[-78.5306597833986,35.8524609489277],[-78.5306560078571,35.8524438316272],[-78.530652715551,35.8524279582214],[-78.5306480859615,35.8524038658327],[-78.5306421468029,35.8523709768135],[-78.5306384311759,35.85234907277],[-78.5306356813101,35.8523309219834],[-78.5306306219444,35.8522933332006],[-78.5306224199061,35.8522293602549],[-78.5306192601719,35.8522017195703],[-78.5306166137571,35.8521749082839],[-78.5306140442381,35.8521426730788],[-78.5306118766983,35.8521081347152],[-78.530610085576,35.8520678788502],[-78.5306087485799,35.8520283503048],[-78.5306084457434,35.8520063404194],[-78.5306086233735,35.8519793786637],[-78.5306092370234,35.851947492808],[-78.5306101430927,35.8519233982884],[-78.5306112295012,35.851904280716],[-78.530613104604,35.8518763214102],[-78.5306205630144,35.851773619922],[-78.530624201425,35.8517114041724],[-78.5306260608692,35.8516743206215],[-78.5306267862645,35.8516529303011],[-78.5306272179395,35.8516323599633],[-78.5306275709369,35.8515624296823],[-78.5306274620911,35.8515270330568],[-78.5306272436139,35.8515148975838],[-78.5306268562229,35.851503061604],[-78.5306249965687,35.8514645035764],[-78.530620744494,35.8513874305349],[-78.5306192382431,35.8513663705226],[-78.5306171657894,35.8513442474629],[-78.5306144801756,35.8513199967016],[-78.5306099524107,35.8512823883188],[-78.5306054744362,35.8512478356426],[-78.5306032368,35.8512326143465],[-78.5306007345266,35.8512168277976],[-78.5305951641389,35.8511850830708],[-78.5305848580741,35.8511298007533],[-78.5305802400552,35.8511065917006],[-78.5305754325118,35.851084562663],[-78.5305685645801,35.851055491697],[-78.5305585958507,35.8510147581736],[-78.5305543984075,35.8509982440305],[-78.5305507402357,35.8509845702582],[-78.5305464280371,35.8509693247484],[-78.5305407468937,35.8509499828212],[-78.5305286562085,35.8509101433574],[-78.530524107177,35.850895837024],[-78.5305152453776,35.8508688629866],[-78.5305107664827,35.8508539187794],[-78.53049564107,35.8507969585385],[-78.5304736299322,35.8507161008979],[-78.5304638860957,35.8506810736605],[-78.5304383309164,35.8505903535051],[-78.5304302367512,35.8505610326414],[-78.5304225659239,35.8505320207615],[-78.5304158299212,35.8505044600206],[-78.5304116870142,35.8504858099219],[-78.5304077449111,35.8504663259626],[-78.5304034194963,35.8504426943983],[-78.5303998757041,35.8504213480173],[-78.5303970397221,35.8504018430799],[-78.5303942697834,35.8503799273327],[-78.5303915523801,35.850355829662],[-78.5303896715315,35.8503359949097],[-78.5303880057308,35.8503128747276],[-78.5303869651081,35.8502907646428],[-78.5303860906436,35.850257016293],[-78.5303859209793,35.8502309617264],[-78.5303865829487,35.8502025858264],[-78.5303880926714,35.8501647320757],[-78.5303892170126,35.850144235601],[-78.5303928192748,35.8500871158166],[-78.5303945738925,35.8500503653372],[-78.5303963831131,35.85000250254],[-78.5303971996282,35.8499641044161],[-78.5303975191864,35.8499361634395],[-78.5303975403466,35.849914230497],[-78.5303966033397,35.8498175094068],[-78.5303962680502,35.8498009055709],[-78.530395811054,35.8497869565918],[-78.5303940838673,35.8497566831941],[-78.5303937308819,35.8497484598795],[-78.5303934515644,35.8497361321803],[-78.5303933595189,35.8497212976951],[-78.5303936983955,35.8496810770362],[-78.53039503222,35.8496209065086],[-78.5303975017484,35.8494725476642]]},"properties":{"OBJECTID":73,"GWSTATUS":"CLOSED_TEMP"}},{"type":"Feature","id":74,"geometry":{"type":"LineString","coordinates":[[-78.5290877742014,35.8581041601223],[-78.5291776481038,35.8578765301616]]},"properties":{"OBJECTID":74,"GWSTATUS":"CLOSED_TEMP"}},{"type":"Feature","id":408,"geometry":{"type":"LineString","coordinates":[[-78.5304387890049,35.8655241693023],[-78.5302019747445,35.8654455006514],[-78.5301069693508,35.8654103965689],[-78.5300155791968,35.8653694242801],[-78.529928348765,35.8653228301512],[-78.5298458002049,35.86527089201],[-78.529768424474,35.8652139191115],[-78.5296966868747,35.8651522521587],[-78.529631013782,35.8650862605475],[-78.5295717971046,35.8650163369755],[-78.529519392054,35.8649429001368],[-78.5294741105391,35.8648663883873],[-78.5294224961776,35.8647771885271],[-78.5293644207922,35.8646906613824],[-78.5293000952087,35.8646071142094],[-78.5292297468956,35.8645268480186],[-78.5291536288741,35.8644501485963],[-78.529072014156,35.8643772909899],[-78.5289851935497,35.8643085358945],[-78.5289361749167,35.864270732344],[-78.528888732996,35.8642316189253],[-78.5288056746562,35.8641563228722],[-78.5287284497817,35.8640770194649],[-78.5286573489439,35.8639940081769],[-78.5285926393787,35.863907601911],[-78.5285466717302,35.8638379164946],[-78.5285048642688,35.8637665156916],[-78.5284673134625,35.8636935648223],[-78.5284222795953,35.863607163325],[-78.5283712789881,35.863522987547],[-78.5283144739349,35.863441311211],[-78.5282520500267,35.8633624000177],[-78.5281842106365,35.8632865080186],[-78.528108350978,35.8632010137394],[-78.5280393642275,35.8631117460081],[-78.5279775305931,35.8630190700571],[-78.5279231047331,35.8629233645396],[-78.5278763091073,35.8628250224043],[-78.5278373351168,35.8627244454921],[-78.5278063419913,35.8626220454327],[-78.527783456806,35.8625182409407],[-78.5277687733691,35.8624134587121],[-78.5276850068571,35.8615794980488],[-78.527619363753,35.8609259524236],[-78.5276143670058,35.8608291213075],[-78.5276106436713,35.8607443999714],[-78.5276131263506,35.8606773074344],[-78.5276212697124,35.8606105126299],[-78.5276405339165,35.8605341013545],[-78.5276663354406,35.8604589781572],[-78.5276985480947,35.8603855129916],[-78.5277370125114,35.8603140693727],[-78.5277815395044,35.8602449980807],[-78.5280162207682,35.8599353382621],[-78.5281102986512,35.8598180076509],[-78.5282116026985,35.8597047347642],[-78.5283198687679,35.8595958132976],[-78.5284903329623,35.8594329893738],[-78.5285565375633,35.8593644162086],[-78.5286158522288,35.8592917847261],[-78.5286679044892,35.8592155522732],[-78.5287123660254,35.8591362007027],[-78.5287489571492,35.8590542273769],[-78.5287774467722,35.8589701505756],[-78.5287976557837,35.8588844995939],[-78.5288159704526,35.8587859108107]]},"properties":{"OBJECTID":408,"GWSTATUS":"CLOSED_TEMP"}},{"type":"Feature","id":409,"geometry":{"type":"LineString","coordinates":[[-78.5291776481038,35.8578765301616],[-78.5293012814961,35.8575359234225],[-78.5293108900844,35.8575090648206],[-78.5293180535151,35.8574883681872],[-78.5293281348995,35.857458272028],[-78.5293374642884,35.8574295411844],[-78.5294474722677,35.8570855214989],[-78.5294561915535,35.8570571632418],[-78.5294646228711,35.8570276799139],[-78.5294710036865,35.8570037075182],[-78.5294763590677,35.8569810957794],[-78.5294820660652,35.8569541905581],[-78.5294845417041,35.8569412660208],[-78.5294868321885,35.8569283849342],[-78.5294889423775,35.856915473408],[-78.5294907591668,35.8569033214723],[-78.5294924836153,35.8568904850706],[-78.52949403045,35.8568775380211],[-78.5294964202231,35.8568540684887],[-78.5294982691531,35.8568306906076],[-78.5294994395686,35.8568101321735],[-78.5295000711675,35.8567896978466],[-78.5295001571439,35.8567716977102],[-78.5294997261113,35.8567561616187],[-78.5294986973634,35.8567404069017],[-78.5294968167745,35.8567197790098],[-78.5294885921825,35.8566411206225],[-78.529483272068,35.8565953062018],[-78.5294700551055,35.8564868107333],[-78.5294327361995,35.8561869851593],[-78.5294090689495,35.855993840538],[-78.529404293314,35.8559560698761],[-78.529398778537,35.8559146099186],[-78.5293971026343,35.8558991474334],[-78.5293960023861,35.8558846488896],[-78.5293955044018,35.8558733893482],[-78.5293953366831,35.8558628341193],[-78.5293954631097,35.8558521511353],[-78.5293959164874,35.855841030465],[-78.5293967093194,35.8558297966356],[-78.529397743178,35.8558193812434],[-78.5293991675359,35.8558082625175],[-78.529400825522,35.8557977116303],[-78.5294027994913,35.8557870853492],[-78.5294051980395,35.8557759875081],[-78.5294078107382,35.8557653799159],[-78.5294107773253,35.8557546520096],[-78.5294140277928,35.8557440378651],[-78.5294175766279,35.8557335213143],[-78.5294214600414,35.8557229681987],[-78.5294255687135,35.8557127088846],[-78.5294304650194,35.8557014241916],[-78.5294354996172,35.8556907276996],[-78.529440785095,35.855680298068],[-78.5294464980984,35.8556698412433],[-78.529451978845,35.8556604822442],[-78.5294583902403,35.8556502552493],[-78.5294655120346,35.8556395271513],[-78.5294735631806,35.8556279635001],[-78.5294845155706,35.8556127083764],[-78.5295005357207,35.855590756089],[-78.5295261684109,35.8555562366783],[-78.5295951512204,35.8554654179318],[-78.5296395514968,35.8554080644738],[-78.5296524583415,35.8553912251229],[-78.5296830215573,35.8553505433688],[-78.5297171744596,35.8553046765748],[-78.5297316483582,35.8552847165422],[-78.5297460277945,35.855264054908],[-78.5297741947694,35.8552224625578],[-78.5297916536441,35.8551960181369],[-78.5297989035335,35.8551845721514],[-78.5298079534896,35.8551699225659],[-78.5298302565982,35.8551329413326],[-78.5298479795217,35.8551024004711],[-78.5298630597205,35.8550754601492],[-78.5298731987244,35.8550566884645],[-78.5298824178699,35.8550392147543],[-78.5299211342005,35.8549634737551],[-78.5299606945959,35.85488784055],[-78.5299814583674,35.8548486153475],[-78.5299880339704,35.8548365926027],[-78.529993934611,35.8548262130862],[-78.5300032309003,35.8548106955511],[-78.5300164535371,35.8547894048012],[-78.5300358935485,35.8547586686292],[-78.5300495982448,35.8547374887942],[-78.5300620787738,35.8547187225108],[-78.5300744427321,35.8547005813004],[-78.530093762851,35.8546727487448],[-78.5301083288454,35.854652147271],[-78.5301210101849,35.8546348283911],[-78.5301371321657,35.8546135794445],[-78.530139039769,35.8546111090362]]},"properties":{"OBJECTID":409,"GWSTATUS":"CLOSED_TEMP"}},{"type":"Feature","id":410,"geometry":{"type":"LineString","coordinates":[[-78.530139039769,35.8546111090362],[-78.5301735807755,35.8545663738692],[-78.5301931459119,35.8545415193371],[-78.530203637698,35.8545286959633],[-78.5302177605406,35.8545119441557],[-78.5302462516526,35.8544786902482],[-78.5302668936627,35.8544548475403],[-78.5302781230858,35.8544421640036],[-78.5302873244136,35.8544321099482],[-78.5302987126288,35.8544201066248],[-78.5303138082814,35.8544045564217],[-78.5303581741772,35.8543594083779],[-78.5303828042245,35.8543345904465],[-78.530400983767,35.8543166680885],[-78.5304451102195,35.8542736507379],[-78.5304559152774,35.8542629196359]]},"properties":{"OBJECTID":410,"GWSTATUS":"CLOSED_TEMP"}},{"type":"Feature","id":411,"geometry":{"type":"LineString","coordinates":[[-78.5304081136781,35.8488644557592],[-78.530405901141,35.8488512201793],[-78.5304029943178,35.8488402965479],[-78.530390024339,35.848794092046],[-78.5303856549517,35.8487778539306],[-78.5303816624137,35.8487609683069],[-78.5303799340532,35.8487526216174],[-78.5303784299921,35.8487445407835],[-78.5303772841603,35.8487374924542],[-78.5303763134052,35.8487304168579],[-78.5303724604959,35.8486994096883],[-78.5303703048046,35.8486809655233],[-78.5303650780474,35.8486310917699],[-78.5303634474351,35.8486139259141],[-78.5303623227936,35.8486003736478],[-78.5303610503772,35.8485810072153],[-78.530359936087,35.8485591960755],[-78.530358940813,35.8485332879346],[-78.5303577152675,35.8484955678401],[-78.5303571901618,35.8484754336456],[-78.5303568957815,35.8484565549951],[-78.5303568121517,35.8484383684785],[-78.5303569259236,35.8484182178164],[-78.530357212692,35.8484014460164],[-78.5303576792386,35.8483863144333],[-78.5303583137256,35.848373717144],[-78.5303591972267,35.8483613236136],[-78.5303603301104,35.8483492609316],[-78.5303618008141,35.8483369796255],[-78.530363512779,35.8483250931311],[-78.5303655137528,35.8483133862138],[-78.5303657476054,35.8483121982563]]},"properties":{"OBJECTID":411,"GWSTATUS":"CLOSED_TEMP"}},{"type":"Feature","id":412,"geometry":{"type":"LineString","coordinates":[[-78.5303657476054,35.8483121982563],[-78.5303678579451,35.8483014841277],[-78.5303704544773,35.848289784912],[-78.530373321151,35.8482782733127],[-78.5303766011252,35.8482663180467],[-78.5303799988566,35.8482550545564],[-78.5303838881095,35.8482432224154],[-78.5303877924438,35.8482322240653],[-78.5303920338321,35.8482211386825],[-78.5303924392834,35.8482201406658]]},"properties":{"OBJECTID":412,"GWSTATUS":"CLOSED_TEMP"}},{"type":"Feature","id":413,"geometry":{"type":"LineString","coordinates":[[-78.5303924392834,35.8482201406658],[-78.5303956918864,35.8482121331322],[-78.5303994573096,35.8482033208804],[-78.5304036307018,35.8481940297893],[-78.5304079295997,35.8481848590586],[-78.530416134798,35.8481681610176],[-78.5304321212464,35.8481368489855],[-78.5304408684256,35.8481192796381],[-78.5304524553828,35.8480952054895],[-78.5304676636238,35.8480629251275],[-78.5304761979671,35.8480444482165],[-78.5304837181759,35.8480276961564],[-78.5304946086374,35.8480028811294],[-78.5305032803778,35.8479826660737],[-78.530509762995,35.8479669113975],[-78.5305156839304,35.8479516061259],[-78.5305221676577,35.8479339442323],[-78.5305308318287,35.8479095027943],[-78.5305390521957,35.8478858005425],[-78.53054488358,35.8478683758902],[-78.5305497197221,35.8478530457091],[-78.5305557050903,35.8478331249562],[-78.5305697870023,35.8477848947581],[-78.5305779229026,35.847756098744],[-78.530583075229,35.8477366479819],[-78.5305965034263,35.8476841222126],[-78.5306086959817,35.8476392458053],[-78.530612410716,35.8476239031915],[-78.5306195825664,35.8475893484494]]},"properties":{"OBJECTID":413,"GWSTATUS":"CLOSED_TEMP"}},{"type":"Feature","id":414,"geometry":{"type":"LineString","coordinates":[[-78.5311177387131,35.8401687966793],[-78.5296941111087,35.8401881054952]]},"properties":{"OBJECTID":414,"GWSTATUS":"CLOSED_TEMP"}},{"type":"Feature","id":415,"geometry":{"type":"LineString","coordinates":[[-78.5311283066375,35.8406852062283],[-78.5311177386054,35.840168796843]]},"properties":{"OBJECTID":415,"GWSTATUS":"CLOSED_TEMP"}},{"type":"Feature","id":417,"geometry":{"type":"LineString","coordinates":[[-78.5315468812446,35.8411187080754],[-78.5314047254713,35.8411684391554],[-78.5313623274363,35.8411807478748],[-78.5313184975353,35.8411890934921],[-78.5312356407942,35.8411985904832]]},"properties":{"OBJECTID":417,"GWSTATUS":"CLOSED_TEMP"}},{"type":"Feature","id":418,"geometry":{"type":"LineString","coordinates":[[-78.531852907333,35.8410044062949],[-78.5318066262247,35.8410154590934],[-78.5317622876292,35.8410309144778],[-78.5315468812446,35.8411187080754]]},"properties":{"OBJECTID":418,"GWSTATUS":"CLOSED_TEMP"}},{"type":"Feature","id":419,"geometry":{"type":"LineString","coordinates":[[-78.5320037394679,35.840999710762],[-78.5319533526227,35.8409961413112],[-78.5319028123612,35.8409977146726],[-78.531852907333,35.8410044062949]]},"properties":{"OBJECTID":419,"GWSTATUS":"CLOSED_TEMP"}},{"type":"Feature","id":420,"geometry":{"type":"LineString","coordinates":[[-78.5312415632941,35.8412945693936],[-78.5312415829758,35.8412917482904],[-78.5312402317802,35.8412451022335],[-78.5312356407785,35.8411985931872]]},"properties":{"OBJECTID":420,"GWSTATUS":"CLOSED_TEMP"}},{"type":"Feature","id":421,"geometry":{"type":"LineString","coordinates":[[-78.531240231826,35.8413495033537],[-78.5312412615285,35.8413090004114],[-78.5312415632941,35.8412945693936]]},"properties":{"OBJECTID":421,"GWSTATUS":"CLOSED_TEMP"}},{"type":"Feature","id":422,"geometry":{"type":"LineString","coordinates":[[-78.5312356407785,35.8411985931872],[-78.5312137234738,35.841114667619],[-78.5311916370476,35.8410484182683],[-78.5311666889842,35.8409828458498],[-78.5311476321888,35.8409253648545],[-78.5311356313566,35.8408666336771],[-78.5311308035086,35.8408072250839],[-78.5311283066375,35.8406852062283]]},"properties":{"OBJECTID":422,"GWSTATUS":"CLOSED_TEMP"}},{"type":"Feature","id":423,"geometry":{"type":"LineString","coordinates":[[-78.5338435956975,35.841134651627],[-78.5338159048039,35.841097844028],[-78.533781778553,35.841064812888],[-78.5337419810737,35.8410362978083],[-78.5336974034769,35.8410129372701],[-78.5336490439024,35.840995254339],[-78.5335979851695,35.8409836449528],[-78.5335453705329,35.8409783690568],[-78.5334923780838,35.8409795447833],[-78.5334401943732,35.8409871458067],[-78.5333899878441,35.8410010019329],[-78.5333428826697,35.8410208029098],[-78.5332584035267,35.8410593198186],[-78.5331703330607,35.841092072245],[-78.5330792633173,35.8411188400125],[-78.5329858065067,35.841139443176],[-78.5328905908876,35.8411537432315],[-78.5327942565435,35.8411616440474],[-78.5326974510795,35.8411630925108],[-78.5326008252677,35.8411580788842],[-78.5325050286728,35.8411466368719],[-78.5324107052843,35.8411288433921],[-78.5323184891871,35.8411048180611],[-78.5322290002985,35.841074722388],[-78.5321428402003,35.8410387586896],[-78.5320985404086,35.8410211648308],[-78.5320519433171,35.8410080842394],[-78.5320037394679,35.840999710762]]},"properties":{"OBJECTID":423,"GWSTATUS":"CLOSED_TEMP"}},{"type":"Feature","id":424,"geometry":{"type":"LineString","coordinates":[[-78.5348427972135,35.8379888925677],[-78.5340839675322,35.8380056530455],[-78.5339826365354,35.8380110027375],[-78.5338820863396,35.8380225410786],[-78.5337828861775,35.8380402027481],[-78.5336855976393,35.8380638877601],[-78.5335907714949,35.8380934620294],[-78.5334989445757,35.8381287581304],[-78.5334106367356,35.8381695762449],[-78.5333263479087,35.8382156852932],[-78.5332465552789,35.838266824242],[-78.5331717105787,35.8383227035824],[-78.5331366124741,35.838347318523],[-78.5330977045657,35.83836778697],[-78.5330557202608,35.8383837230956],[-78.5330114509576,35.8383948265055],[-78.5329657311278,35.8384008879015],[-78.5329194225859,35.8384017930268],[-78.5327508961015,35.8383956527015],[-78.5326984322186,35.8383970702876],[-78.5326468733542,35.8384050970173],[-78.5325974675556,35.8384195385933],[-78.5325514107546,35.8384400454389],[-78.532509817818,35.8384661211594],[-78.5324736955618,35.8384971345579],[-78.5324439183801,35.8385323349138],[-78.5324212070786,35.8385708701543],[-78.5324061114266,35.8386118074802],[-78.5323989968475,35.838654155945],[-78.5323933831764,35.8386905576995],[-78.5323818627759,35.8387260257998],[-78.5323646410917,35.8387599277128],[-78.5323420252462,35.838791658836],[-78.5322896953473,35.8388602441688],[-78.5322436914534,35.8389317730836],[-78.5322042619461,35.8390058594118],[-78.5321716197151,35.8390821031773],[-78.5321459410087,35.8391600927552],[-78.5321273644818,35.8392394070938],[-78.5321159904469,35.8393196179886],[-78.5321118803322,35.8394002923932],[-78.5321142055634,35.8394701737592],[-78.532116534135,35.8395400524324],[-78.5321124637341,35.8396203131984],[-78.5321012035496,35.8397001174075],[-78.53208281373,35.8397790386184],[-78.5320573925228,35.8398566551067],[-78.5320250757495,35.8399325521191],[-78.5319927588563,35.8400084492945],[-78.5319673374599,35.8400860659374],[-78.5319489474205,35.8401649873003],[-78.5319376870268,35.8402447916629],[-78.5319336164706,35.8403250525852],[-78.5319372042418,35.8404104790374],[-78.53194893571,35.8404954199996],[-78.5319687399214,35.8405793615507],[-78.5319964970785,35.840661795815],[-78.5320141218766,35.8407169311559],[-78.5320246401177,35.84077325613],[-78.532027938699,35.840830165154],[-78.5320259464682,35.8408698405789],[-78.5320204402326,35.8409092952362],[-78.5320037394679,35.840999710762]]},"properties":{"OBJECTID":424,"GWSTATUS":"CLOSED_TEMP"}},{"type":"Feature","id":528,"geometry":{"type":"LineString","coordinates":[[-78.5137611257851,35.7263564213006],[-78.5137402093105,35.7263328687883],[-78.5137261084933,35.7263173108342],[-78.5137090517856,35.7263038641732],[-78.5136895071105,35.7262928976917],[-78.5136680106434,35.7262847122362],[-78.513633664924,35.7262743634059]]},"properties":{"OBJECTID":528,"GWSTATUS":"CLOSED_TEMP"}},{"type":"Feature","id":1130,"geometry":{"type":"LineString","coordinates":[[-78.6758056084611,35.8356789472113],[-78.6756806370611,35.835800048517]]},"properties":{"OBJECTID":1130,"GWSTATUS":"CLOSED_STORM"}},{"type":"Feature","id":1284,"geometry":{"type":"LineString","coordinates":[[-78.6489381675856,35.826784677383],[-78.6490901126654,35.8268046242911]]},"properties":{"OBJECTID":1284,"GWSTATUS":"CLOSED_STORM"}},{"type":"Feature","id":1429,"geometry":{"type":"LineString","coordinates":[[-78.5288159704526,35.8587859108107],[-78.5288224437745,35.8587510669807],[-78.5288385708637,35.8586799566897],[-78.5288603366461,35.8586098497285],[-78.5288876508147,35.8585410404802],[-78.5289203965017,35.8584738214219],[-78.5290114893687,35.8582852996144],[-78.5290877742017,35.8581041601221]]},"properties":{"OBJECTID":1429,"GWSTATUS":"CLOSED_TEMP"}}]}
