{"type":"FeatureCollection","features":[{"type":"Feature","properties":{"creator":"BRouter-1.7.10","track-length":"14249","total-time":"2697","cost":"41586"},"geometry":{"type":"LineString","coordinates":[[-78.529111,35.884405,59],[-78.528781,35.884259,59.5],[-78.528395,35.884059,59.75],[-78.527917,35.88369,60.25],[-78.527818,35.883559,60.5],[-78.527783,35.883472,60.5],[-78.527774,35.883379,60.5],[-78.527805,35.883212,60.75],[-78.5278,35.883142,60.75],[-78.52773,35.882986,61],[-78.527405,35.882635,62.5],[-78.527327,35.882484,62.75],[-78.527301,35.882309,62.75],[-78.527377,35.882094,62.5],[-78.527644,35.88173,61.75],[-78.527725,35.881569,61.5],[-78.527803,35.881276,61.5],[-78.527857,35.881171,61.5],[-78.527987,35.881004,62],[-78.528089,35.880834,62.25],[-78.528159,35.880529,61.5],[-78.528224,35.880296,60.75],[-78.528304,35.880068,60],[-78.528438,35.879814,60.5],[-78.528615,35.879552,61.25],[-78.528926,35.879207,62.75],[-78.529067,35.879063,63.25],[-78.529414,35.878757,63],[-78.529795,35.878383,62.25],[-78.530117,35.878083,61.75],[-78.530482,35.877839,62.25],[-78.530782,35.877661,63.25],[-78.531008,35.877544,63],[-78.531189,35.877478,62],[-78.531753,35.877253,59.5],[-78.531984,35.877118,58.25],[-78.532396,35.876851,56],[-78.532746,35.87664,56.25],[-78.533003,35.876422,56.25],[-78.533191,35.876279,56.5],[-78.533363,35.876109,56.75],[-78.533706,35.875583,57.75],[-78.533876,35.875665,57],[-78.534574,35.875878,56],[-78.534771,35.875971,56],[-78.534886,35.876087,56.5],[-78.534927,35.876167,56.5],[-78.534945,35.876317,57],[-78.534893,35.876517,57.25],[-78.534836,35.876683,57.5],[-78.534908,35.876698,57.75],[-78.534989,35.876704,58],[-78.535165,35.876697,58.25],[-78.535254,35.876711,58.25],[-78.535329,35.87674,58.5],[-78.535407,35.876801,58.75],[-78.535455,35.876881,59.25],[-78.535572,35.877057,60.25],[-78.535627,35.877099,60.75],[-78.535645,35.877144,61],[-78.535987,35.877011,61.5],[-78.536367,35.876885,62],[-78.536759,35.876781,62.5],[-78.537142,35.876613,62.25],[-78.537295,35.876539,62],[-78.537454,35.876473,61.75],[-78.537948,35.876268,62.25],[-78.538286,35.876128,63.25],[-78.538356,35.876099,63.75],[-78.53816,35.875795,62.75],[-78.538151,35.875615,62.75],[-78.538149,35.875579,62.5],[-78.538205,35.875449,62.75],[-78.538211,35.875434,62.75],[-78.538275,35.87536,63],[-78.538368,35.875251,63.5],[-78.538518,35.875183,64.5],[-78.538884,35.875059,66.75],[-78.539042,35.874984,68],[-78.538919,35.874793,67.25],[-78.538817,35.874499,67],[-78.53878,35.874316,67.25],[-78.538651,35.873453,65.75],[-78.538588,35.872929,64],[-78.538536,35.872657,63.25],[-78.53844,35.872408,62.5],[-78.53833,35.872015,62.5],[-78.538246,35.871576,63],[-78.538238,35.871472,63],[-78.538267,35.87137,63.25],[-78.538265,35.871034,63.5],[-78.538277,35.870886,63.75],[-78.538289,35.870824,63.75],[-78.538365,35.870494,66.75],[-78.538381,35.870428,67.25],[-78.538474,35.870426,67],[-78.538732,35.870422,66.5],[-78.538917,35.870406,66.5],[-78.539517,35.870306,68],[-78.539884,35.870217,70],[-78.540279,35.870092,72.25],[-78.540539,35.86999,74],[-78.540964,35.86979,76.75],[-78.541276,35.869599,78],[-78.541607,35.869392,79],[-78.541764,35.869267,79.5],[-78.541846,35.869155,80],[-78.541852,35.869108,80],[-78.541815,35.868951,79.75],[-78.541798,35.868892,79.75],[-78.541748,35.868774,79.75],[-78.541718,35.868696,79.75],[-78.541652,35.868519,79.25],[-78.541625,35.868417,79.25],[-78.541599,35.867994,79.25],[-78.541569,35.867504,79.5],[-78.541564,35.867428,79.5],[-78.542223,35.867409,79.25],[-78.542845,35.867386,77.75],[-78.54309,35.867377,77.25],[-78.543347,35.867373,76.5],[-78.543868,35.867367,79],[-78.544321,35.867361,81.75],[-78.544439,35.86736,82.75],[-78.54449,35.867359,83.25],[-78.544695,35.867356,84.75],[-78.544768,35.867351,85.5],[-78.544821,35.867347,85.75],[-78.544939,35.867308,86.75],[-78.545096,35.86724,87.75],[-78.545236,35.867118,88],[-78.545275,35.867029,88.25],[-78.545264,35.866837,88.5],[-78.545215,35.866749,88.75],[-78.545121,35.866645,88.75],[-78.545014,35.866561,88.75],[-78.545108,35.866464,88.75],[-78.545399,35.866296,88.5],[-78.545512,35.866217,88.25],[-78.545601,35.866127,88],[-78.545677,35.866028,87.75],[-78.545771,35.865884,87.25],[-78.54593,35.86557,88],[-78.545997,35.865504,88.25],[-78.546052,35.86546,88.25],[-78.546137,35.865438,88],[-78.546455,35.865329,87.5],[-78.546472,35.865284,87.5],[-78.546507,35.865253,87.5],[-78.546568,35.865163,87.25],[-78.546664,35.864971,87],[-78.546674,35.864931,87.25],[-78.546677,35.864918,87.25],[-78.546648,35.86488,87.5],[-78.546617,35.864865,87.5],[-78.546655,35.86483,87.5],[-78.546676,35.864804,87.5],[-78.546839,35.864911,87.5],[-78.547057,35.864939,88],[-78.54716,35.864984,88],[-78.547253,35.864843,88.5],[-78.54725,35.864805,88.5],[-78.547422,35.864502,88.75],[-78.54756,35.864336,88.75],[-78.547676,35.864141,88.5],[-78.548057,35.863535,86.75],[-78.548276,35.863279,86],[-78.548368,35.863231,85.75],[-78.5484,35.86322,85.75],[-78.548384,35.863189,85.75],[-78.548368,35.863143,86],[-78.548359,35.863106,86],[-78.548349,35.863069,86.25],[-78.5485,35.862827,86],[-78.548786,35.862429,86],[-78.548815,35.862417,86],[-78.548865,35.862407,86],[-78.548983,35.862373,86.25],[-78.549006,35.862207,86.5],[-78.549069,35.862116,87],[-78.549201,35.862057,87.25],[-78.549232,35.862053,87.25],[-78.549229,35.862028,87.5],[-78.549219,35.861972,87.5],[-78.54921,35.861918,87.75],[-78.549207,35.861884,88],[-78.549507,35.861464,89.5],[-78.549563,35.861413,89.75],[-78.549598,35.861416,89.75],[-78.549659,35.861427,90],[-78.549705,35.861309,90],[-78.549817,35.861159,90],[-78.55014,35.860764,90.5],[-78.55044,35.860427,91.75],[-78.550527,35.860324,91.75],[-78.550612,35.860232,92],[-78.550843,35.859941,91.75],[-78.551077,35.85966,92.25],[-78.551265,35.859457,92.5],[-78.551314,35.859417,92.5],[-78.551344,35.859377,92.5],[-78.551482,35.859235,92.5],[-78.551849,35.858882,93],[-78.551891,35.85885,93.25],[-78.551939,35.858801,93.25],[-78.552324,35.858442,93],[-78.552698,35.858155,94],[-78.552844,35.858017,94.75],[-78.552981,35.857908,95.25],[-78.553005,35.857875,95.5],[-78.553235,35.857993,96.25],[-78.553324,35.857989,96.5],[-78.553863,35.857442,96],[-78.554035,35.857338,96],[-78.554214,35.857201,96.25],[-78.554755,35.856699,99.5],[-78.554826,35.856615,99.5],[-78.555143,35.856395,99.75],[-78.555324,35.856344,99.75],[-78.555518,35.85635,100.5],[-78.555606,35.856366,100.75],[-78.555729,35.85637,101.25],[-78.55599,35.856378,101.75],[-78.556625,35.856379,103],[-78.556686,35.856379,103.25],[-78.556874,35.856405,104],[-78.55698,35.856456,104.5],[-78.557079,35.85634,104],[-78.557124,35.856152,103.25],[-78.557137,35.85602,102.5],[-78.556612,35.856023,101],[-78.556462,35.855987,100.5],[-78.555984,35.855972,99.75],[-78.555792,35.855973,99.5],[-78.555674,35.855967,99],[-78.555579,35.855957,98.5],[-78.555376,35.855921,97.75],[-78.555301,35.855921,97.5],[-78.555271,35.855921,97.25],[-78.555167,35.855878,96.75],[-78.554985,35.855807,95.75],[-78.554883,35.855754,95.75],[-78.55486,35.855743,95.5],[-78.55477,35.855688,95.5],[-78.554703,35.855628,95.5],[-78.55464,35.85555,95.25],[-78.554606,35.855482,95.25],[-78.554589,35.855429,95.25],[-78.55458,35.855374,95],[-78.554579,35.855293,95],[-78.554589,35.855224,94.75],[-78.554615,35.855145,94.5],[-78.554667,35.85505,94.25],[-78.554749,35.854943,94],[-78.554944,35.854676,93.75],[-78.55502,35.854557,94],[-78.555054,35.854481,94.5],[-78.555082,35.854363,94.75],[-78.555119,35.85413,95.5],[-78.555258,35.853063,97],[-78.555305,35.852641,95.25],[-78.555346,35.852347,94.5],[-78.555474,35.851358,92.25],[-78.555519,35.851004,92.25],[-78.555715,35.849585,90.5],[-78.555762,35.849273,90.75],[-78.55579,35.849139,90.75],[-78.555822,35.849015,90.25],[-78.555885,35.848836,89.75],[-78.555956,35.848711,89.25],[-78.556024,35.84861,88.75],[-78.556102,35.848512,88.25],[-78.556163,35.84844,88],[-78.55632,35.848287,87.25],[-78.556259,35.848223,87.25],[-78.555931,35.847912,86],[-78.555859,35.847845,85.5],[-78.555732,35.847735,84.75],[-78.555476,35.847523,83.25],[-78.555341,35.847421,82.5],[-78.554919,35.847163,81],[-78.554702,35.846995,80.5],[-78.554061,35.84646,78],[-78.553995,35.846385,77.75],[-78.553932,35.846303,77.5],[-78.553726,35.845994,76.25],[-78.553645,35.845912,76],[-78.553571,35.845849,76],[-78.55347,35.845788,75.75],[-78.553207,35.84565,75.25],[-78.553106,35.845584,74.75],[-78.553023,35.845514,74.25],[-78.552949,35.845429,73.75],[-78.552888,35.845333,73.25],[-78.552836,35.845205,72.5],[-78.552813,35.845101,72],[-78.552806,35.844989,71.75],[-78.552819,35.844864,71.25],[-78.552855,35.844758,71.25],[-78.552912,35.84464,71],[-78.553049,35.844446,71],[-78.552713,35.84417,68.75],[-78.55264,35.844142,68.5],[-78.552568,35.844168,68],[-78.552024,35.844551,68.75],[-78.551962,35.844595,69],[-78.551774,35.844434,68],[-78.551501,35.844207,66.75],[-78.551443,35.844155,66.75],[-78.551361,35.844082,67],[-78.551169,35.843945,67.5],[-78.550996,35.843839,67.75],[-78.550865,35.843775,68],[-78.550628,35.843685,68.25],[-78.550405,35.84362,68.5],[-78.550237,35.843579,68.5],[-78.550035,35.84355,68.75],[-78.54954,35.843565,69.5],[-78.549121,35.843585,70],[-78.549012,35.843591,70.25],[-78.547689,35.843608,69.75],[-78.547518,35.843581,69.5],[-78.547298,35.843511,69.25],[-78.547117,35.843399,68.75],[-78.546946,35.843218,68],[-78.546878,35.843079,67.75],[-78.546833,35.84294,67],[-78.546844,35.842684,66],[-78.546856,35.842569,65.5],[-78.546874,35.842296,65.25],[-78.54688,35.842203,65.25],[-78.547009,35.841268,65.5],[-78.54702,35.841188,65.75],[-78.547036,35.841064,66],[-78.547081,35.840872,66.25],[-78.547128,35.840726,66.75],[-78.547364,35.840221,69],[-78.547456,35.839993,70],[-78.547525,35.839782,70.25],[-78.547601,35.83946,70.75],[-78.548434,35.839593,72],[-78.548586,35.839618,72],[-78.549239,35.839723,71.5],[-78.549258,35.839644,72],[-78.549761,35.837571,76.25],[-78.549782,35.837482,76.5],[-78.550115,35.836202,79.5],[-78.550174,35.835912,80.25],[-78.550271,35.835537,80.75],[-78.550295,35.835312,81.25],[-78.550301,35.835128,81.5],[-78.550296,35.835032,81.75],[-78.550206,35.835034,81.75],[-78.549399,35.835052,80.5],[-78.549331,35.835033,80.25],[-78.549245,35.835022,80],[-78.549207,35.83501,80],[-78.549191,35.834988,80],[-78.549142,35.834956,79.75],[-78.5491,35.834898,79.75],[-78.549077,35.834837,79.75],[-78.549035,35.83466,79.5],[-78.548922,35.834287,79.25],[-78.548788,35.834087,79.25],[-78.548685,35.833955,79.25],[-78.548499,35.833714,79.25],[-78.54843,35.833624,79.25],[-78.548246,35.833456,79.25],[-78.547946,35.833271,80.25],[-78.547714,35.833175,80.75],[-78.547357,35.833057,81.5],[-78.546669,35.832849,81.5],[-78.546509,35.832801,81.5],[-78.545602,35.832527,80.25],[-78.545505,35.832498,80.25],[-78.54479,35.832301,79.75],[-78.544487,35.832192,78.75],[-78.544314,35.832092,77.75],[-78.543882,35.831752,74.25],[-78.543856,35.83173,74.25],[-78.543448,35.831387,70.75],[-78.5435,35.831288,70.5],[-78.543532,35.831174,70],[-78.543556,35.830981,69],[-78.543576,35.830821,68.25],[-78.543614,35.830381,67.5],[-78.543687,35.82937,68.25],[-78.543733,35.829188,68.75],[-78.54379,35.829079,68.25],[-78.543891,35.828961,67.5],[-78.544015,35.828842,66.5],[-78.544204,35.82872,65.5],[-78.544407,35.828646,65],[-78.544627,35.828617,65],[-78.5448,35.828637,65.5],[-78.54496,35.82868,66.25],[-78.545179,35.828756,67],[-78.545469,35.82893,68.25],[-78.545678,35.829035,69],[-78.545725,35.829059,69.25],[-78.545937,35.829144,69.5],[-78.546169,35.8292,69.5],[-78.546367,35.829215,69.5],[-78.546718,35.829235,69.25],[-78.547828,35.829276,72.25],[-78.547761,35.828978,71],[-78.547757,35.828871,70.75],[-78.547759,35.828677,69.75],[-78.54778,35.8284,68.75],[-78.547798,35.828294,68.5],[-78.547834,35.828095,67.75],[-78.547828,35.827888,67],[-78.547806,35.827688,66.25],[-78.547782,35.82758,65.75],[-78.547728,35.827451,66],[-78.547626,35.827271,67.25],[-78.547414,35.827019,68.75],[-78.546987,35.826634,69],[-78.546475,35.826185,68.75],[-78.546214,35.825928,68.5],[-78.546046,35.825761,68.5],[-78.545805,35.825479,69.5],[-78.545656,35.825234,71.5],[-78.545561,35.825077,72.25],[-78.545548,35.825054,72.25],[-78.545333,35.824702,72.75],[-78.545266,35.824595,72.5],[-78.545208,35.824431,72.25],[-78.545204,35.824392,72.25],[-78.54519,35.824271,72.25],[-78.545193,35.824201,72.25],[-78.5452,35.824115,72.25],[-78.54527,35.823926,72.25],[-78.545468,35.823556,71.75],[-78.545748,35.822992,73.25],[-78.545875,35.822735,75.5],[-78.545952,35.822598,77],[-78.546002,35.822532,78],[-78.546115,35.822386,79.75],[-78.546276,35.822176,82],[-78.546542,35.821931,85],[-78.546914,35.821642,85.5],[-78.547121,35.82149,84.25],[-78.54699,35.82136,84.5],[-78.546346,35.820843,83.25],[-78.546178,35.820695,82.5],[-78.54605,35.820542,82.25],[-78.545876,35.820245,82.5],[-78.545684,35.819853,82],[-78.5452,35.818839,80.25],[-78.544848,35.818115,80.5],[-78.544703,35.817855,80.25],[-78.544555,35.817693,80.5],[-78.544216,35.817433,81],[-78.543993,35.817289,81.25],[-78.543561,35.816999,81.25],[-78.543421,35.816851,81.5],[-78.543369,35.816742,81.75],[-78.543321,35.816541,81.75],[-78.543309,35.816434,81.5],[-78.543283,35.81616,81.25],[-78.543249,35.815899,81.25],[-78.542898,35.815926,82],[-78.542886,35.815837,82],[-78.542708,35.815856,82.25],[-78.542568,35.815905,82.75],[-78.542436,35.815987,82.5],[-78.542246,35.816117,82],[-78.542163,35.816165,81.75],[-78.542051,35.8162,81.5],[-78.541941,35.816205,81.5],[-78.541418,35.81615,79.5],[-78.541273,35.816142,78.5],[-78.541146,35.816155,77.75],[-78.541034,35.81618,77.25],[-78.540915,35.816238,76.75],[-78.540698,35.816376,75.5],[-78.540201,35.816717,70.5],[-78.540091,35.816752,69],[-78.539977,35.816765,67.75],[-78.539902,35.816728,67.25],[-78.539852,35.816672,67.25],[-78.539806,35.81657,66.75],[-78.539753,35.816494,66.25],[-78.539692,35.816485,65.5],[-78.539624,35.816513,64.75],[-78.539587,35.816598,64.5],[-78.539562,35.816688,64],[-78.539501,35.816705,63.25],[-78.53952,35.816903,62.5],[-78.539569,35.817048,62.25],[-78.539709,35.817278,61.75],[-78.539722,35.817341,61.5],[-78.539714,35.817378,61.25],[-78.539689,35.817435,61.25],[-78.53965,35.817473,61],[-78.539583,35.817517,60.75],[-78.53873,35.817807,58.75],[-78.538663,35.817835,58.75],[-78.538621,35.817862,58.5],[-78.538561,35.817954,58.25],[-78.53852,35.818166,57.75],[-78.538507,35.818355,57.75],[-78.538452,35.818506,57.75],[-78.538321,35.818765,58],[-78.538222,35.818913,58],[-78.538142,35.819049,58],[-78.537984,35.819468,58],[-78.537957,35.819595,58],[-78.537953,35.81968,58.25],[-78.537921,35.819814,58.25],[-78.537812,35.820133,59],[-78.537769,35.820306,60],[-78.537764,35.82047,61],[-78.537773,35.820569,61.25],[-78.53782,35.82071,61.5],[-78.538083,35.821296,60.5],[-78.538391,35.821948,59.5],[-78.538445,35.822091,59.5],[-78.538456,35.822194,59.5],[-78.538446,35.822298,59.75],[-78.538415,35.822395,60.25],[-78.538263,35.822668,61.75],[-78.53828,35.822744,61.5],[-78.538382,35.823104,61.5],[-78.538377,35.823174,61.5],[-78.538387,35.823257,61.5],[-78.538464,35.823425,61.25],[-78.538564,35.823594,60.75],[-78.538625,35.823722,60.5],[-78.53867,35.823877,60.5],[-78.538684,35.824012,60.5],[-78.538672,35.824196,60.75],[-78.538625,35.824458,60.5],[-78.538491,35.825024,60.25],[-78.538389,35.825776,60.75],[-78.538335,35.826093,61.25],[-78.538233,35.826589,62.5],[-78.538121,35.82702,63.5],[-78.538062,35.827211,64],[-78.538067,35.827359,64],[-78.538142,35.827716,62.5],[-78.538153,35.827898,61.75],[-78.538115,35.828094,61],[-78.538083,35.828316,60.25],[-78.538019,35.828507,60],[-78.537922,35.82869,59.5],[-78.53781,35.828925,58.75],[-78.537649,35.829155,57.25],[-78.537445,35.829355,58],[-78.537257,35.829508,58.75],[-78.536737,35.829773,58.5],[-78.536426,35.830004,58.5],[-78.536313,35.830077,58.75],[-78.536088,35.83016,59],[-78.535777,35.830251,59.75],[-78.53538,35.830378,61.75],[-78.535026,35.830465,63],[-78.534704,35.830534,63],[-78.534167,35.830565,62.75],[-78.53391,35.830547,63.25],[-78.533674,35.830512,64],[-78.533073,35.830399,64.75],[-78.532848,35.830369,64.25],[-78.532803,35.830368,63.75]]}}]}
