{"type":"FeatureCollection","features":[{"type":"Feature","properties":{"creator":"BRouter-1.7.10","track-length":"7135","total-time":"1275","cost":"8270"},"geometry":{"type":"LineString","coordinates":[[-78.529111,35.884405,59],[-78.528781,35.884259,59.5],[-78.528395,35.884059,59.75],[-78.527917,35.88369,60.25],[-78.527818,35.883559,60.5],[-78.527783,35.883472,60.5],[-78.527774,35.883379,60.5],[-78.527805,35.883212,60.75],[-78.5278,35.883142,60.75],[-78.52773,35.882986,61],[-78.527405,35.882635,62.5],[-78.527327,35.882484,62.75],[-78.527301,35.882309,62.75],[-78.527377,35.882094,62.5],[-78.527644,35.88173,61.75],[-78.527725,35.881569,61.5],[-78.527803,35.881276,61.5],[-78.527857,35.881171,61.5],[-78.527987,35.881004,62],[-78.528089,35.880834,62.25],[-78.528159,35.880529,61.5],[-78.528224,35.880296,60.75],[-78.528304,35.880068,60],[-78.528438,35.879814,60.5],[-78.528615,35.879552,61.25],[-78.528926,35.879207,62.75],[-78.529067,35.879063,63.25],[-78.529414,35.878757,63],[-78.529795,35.878383,62.25],[-78.530117,35.878083,61.75],[-78.530482,35.877839,62.25],[-78.530782,35.877661,63.25],[-78.531008,35.877544,63],[-78.531189,35.877478,62],[-78.531753,35.877253,59.5],[-78.531984,35.877118,58.25],[-78.532396,35.876851,56],[-78.532746,35.87664,56.25],[-78.533003,35.876422,56.25],[-78.533191,35.876279,56.5],[-78.533363,35.876109,56.75],[-78.533706,35.875583,57.75],[-78.533905,35.875218,58.25],[-78.534613,35.874194,57.25],[-78.534946,35.873739,59],[-78.535127,35.873528,60.5],[-78.535323,35.873326,62],[-78.535488,35.873173,62.25],[-78.535662,35.872977,63],[-78.535812,35.872704,64],[-78.535948,35.872435,64.5],[-78.536532,35.871194,60.75],[-78.536533,35.871057,60.25],[-78.536474,35.870944,59.75],[-78.536269,35.870662,60],[-78.536039,35.870407,61.5],[-78.535933,35.870343,62],[-78.535865,35.870265,62.75],[-78.535701,35.869984,62.75],[-78.535272,35.869342,64],[-78.535006,35.86882,64.25],[-78.53482,35.86857,64.75],[-78.534617,35.868247,64.5],[-78.534511,35.868063,64.25],[-78.534269,35.867778,63.75],[-78.533843,35.867352,64.5],[-78.533658,35.867256,64.5],[-78.53333,35.867104,64.25],[-78.53311,35.866964,64],[-78.532126,35.866277,63.5],[-78.531776,35.865953,63],[-78.531681,35.865905,62.5],[-78.531534,35.865862,62],[-78.531243,35.865795,61],[-78.5309,35.865684,59.75],[-78.530709,35.865613,59.75],[-78.53046,35.865527,60],[-78.529992,35.865356,61.25],[-78.529879,35.865302,61.5],[-78.529834,35.865281,61.5],[-78.529563,35.86501,63.25],[-78.529279,35.864577,63.75],[-78.528855,35.864201,63.5],[-78.528628,35.863961,63.25],[-78.528468,35.863726,62.75],[-78.528283,35.86339,62],[-78.528072,35.86316,61.75],[-78.52794,35.862962,61.25],[-78.527853,35.862764,60.75],[-78.527799,35.862573,60],[-78.527773,35.862416,60.25],[-78.52773,35.862051,61.5],[-78.527614,35.860821,60],[-78.527618,35.860647,59.5],[-78.527632,35.860565,59],[-78.527746,35.860299,58.5],[-78.527987,35.859955,58],[-78.528159,35.859738,58.5],[-78.528368,35.859538,59],[-78.52856,35.859368,59.5],[-78.528731,35.859125,59.75],[-78.528805,35.85889,59.75],[-78.528818,35.85879,59.5],[-78.528826,35.858731,59.5],[-78.529103,35.858073,59.25],[-78.529302,35.857577,60.75],[-78.529388,35.857316,61.25],[-78.529478,35.857014,61.5],[-78.529505,35.856792,61.5],[-78.529492,35.856607,61],[-78.52942,35.856108,59.25],[-78.529398,35.855908,58.75],[-78.529404,35.855761,58.75],[-78.529475,35.855628,59],[-78.529621,35.855443,59],[-78.52983,35.855151,59],[-78.529978,35.854847,59],[-78.530141,35.8546,60],[-78.530257,35.854447,60.75],[-78.530455,35.854286,61.75],[-78.530857,35.853803,63.5],[-78.530949,35.85364,63.75],[-78.530996,35.853516,64],[-78.530927,35.85326,63.25],[-78.530741,35.85276,61.75],[-78.530653,35.852458,61.25],[-78.53062,35.85212,61.5],[-78.530643,35.851679,62.25],[-78.530633,35.851305,61.75],[-78.530594,35.85109,61.5],[-78.53052,35.85083,61],[-78.530434,35.8506,60.75],[-78.530387,35.850277,60.25],[-78.530399,35.849481,59.25],[-78.530429,35.848979,58.75],[-78.530411,35.848844,58.75],[-78.530369,35.848655,58.75],[-78.530356,35.848447,59],[-78.53037,35.848302,59.25],[-78.5305,35.847979,59.5],[-78.530616,35.847587,59.5],[-78.530777,35.847042,61.25],[-78.53104,35.846068,63.5],[-78.531072,35.845872,63.5],[-78.531074,35.845212,58.25],[-78.531088,35.84493,56.75],[-78.53109,35.844721,57.25],[-78.531046,35.84449,58],[-78.531048,35.844328,58.5],[-78.531076,35.844144,59],[-78.531222,35.843624,60.5],[-78.531286,35.842364,61],[-78.531284,35.842155,60.5],[-78.531271,35.841957,60],[-78.531245,35.841644,59.25],[-78.531226,35.841205,59],[-78.531158,35.840837,58.5],[-78.531131,35.840176,59.5],[-78.529742,35.840202,58.75],[-78.529731,35.840089,59],[-78.529758,35.839954,59],[-78.529902,35.839797,58.5],[-78.529975,35.839688,58.5],[-78.530316,35.83918,60.75],[-78.53053,35.83868,59.75],[-78.530836,35.837745,58.5],[-78.530895,35.837536,58.75],[-78.530911,35.837332,60],[-78.530852,35.836736,64.25],[-78.53082,35.83651,64.5],[-78.530584,35.835979,64.75],[-78.530375,35.83554,64],[-78.530194,35.835123,61.5],[-78.530192,35.835073,61],[-78.530205,35.834959,60.25],[-78.530233,35.834786,60.25],[-78.530237,35.834726,60],[-78.530226,35.834684,60],[-78.5302,35.834646,60],[-78.530152,35.834604,60],[-78.529993,35.834506,60.25],[-78.529436,35.834154,58.5],[-78.529392,35.834112,58.75],[-78.529392,35.834073,59],[-78.529655,35.833622,61.25],[-78.529743,35.833523,61.5],[-78.529789,35.833501,61.5],[-78.529858,35.833483,61.5],[-78.530073,35.833449,61.25],[-78.530226,35.833408,60.75],[-78.530274,35.833385,60.5],[-78.530324,35.833345,60.25],[-78.530356,35.833299,60.5],[-78.530471,35.833018,62.5],[-78.5306,35.832652,64.5],[-78.530809,35.832148,65.25],[-78.531088,35.831526,64.75],[-78.531265,35.831252,64.5],[-78.531458,35.830978,64.25],[-78.531603,35.830808,63.5],[-78.531796,35.830686,62.75],[-78.532147,35.830519,62.75],[-78.532322,35.830444,63],[-78.532461,35.830395,63],[-78.53266,35.830365,63.75],[-78.532803,35.830368,64.25]]}}]}
